IRIDIUM 921 [-]         
1 24873U 97034E   24077.21419294  .00017711  00000+0  54885-3 0  9998
2 24873  86.3867 333.4370 0001534 194.2399 165.8808 15.33316766461061
IRIDIUM 26 [-]          
1 24903U 97043A   24077.57813806  .00000408  00000+0  13321-3 0  9993
2 24903  86.3930 302.2262 0002165  93.0120 267.1325 14.36241370391184
IRIDIUM 22 [-]          
1 24907U 97043E   24077.56308150  .00000370  00000+0  12275-3 0  9992
2 24907  86.3940 305.3981 0002070  86.6167 273.5266 14.35136488391261
DUMMY MASS 1 [-]        
1 24925U 97048A   24077.21799883  .00000561  00000+0  60921-4 0  9990
2 24925  86.3397 346.4869 0005879 346.4268  13.6797 14.86094051437489
DUMMY MASS 2 [-]        
1 24926U 97048B   24077.23970330  .00000560  00000+0  61146-4 0  9990
2 24926  86.3398 348.0025 0007102 355.5061   4.6098 14.85853248437031
IRIDIUM 29 [-]          
1 24944U 97051A   24077.24634008  .00000434  00000+0  14395-3 0  9997
2 24944  86.3996 335.4610 0001966  80.8457 279.2962 14.35595106387691
IRIDIUM 33 [-]          
1 24946U 97051C   24077.25768743  .00000307  00000+0  10228-3 0  9994
2 24946  86.3910 334.7151 0009574 121.1048 239.1088 14.34285520387238
IRIDIUM 28 [-]          
1 24948U 97051E   24077.24138570  .00000434  00000+0  14101-3 0  9999
2 24948  86.3997 333.2419 0002403  95.0547 265.0924 14.36543801388221
